[{"OBJECT_NAME":"STARLINK-5309","OBJECT_ID":"2023-010AT","EPOCH":"2026-03-09T23:30:49.083264","MEAN_MOTION":14.98327794,"ECCENTRICITY":0.00025319,"INCLINATION":70.0019,"RA_OF_ASC_NODE":3.8092,"ARG_OF_PERICENTER":272.8662,"MEAN_ANOMALY":87.2208,"EPHEMERIS_TYPE":0,"CLASSIFICATION_TYPE":"U","NORAD_CAT_ID":55310,"ELEMENT_SET_NO":999,"REV_AT_EPOCH":17381,"BSTAR":-6.3457602e-5,"MEAN_MOTION_DOT":-8.5e-6,"MEAN_MOTION_DDOT":0},{"OBJECT_NAME":"EZIE-C","OBJECT_ID":"2025-052AR","EPOCH":"2026-03-09T16:54:14.963904","MEAN_MOTION":14.96297342,"ECCENTRICITY":0.00032112,"INCLINATION":97.6981,"RA_OF_ASC_NODE":322.3863,"ARG_OF_PERICENTER":161.3597,"MEAN_ANOMALY":198.7743,"EPHEMERIS_TYPE":0,"CLASSIFICATION_TYPE":"U","NORAD_CAT_ID":63249,"ELEMENT_SET_NO":999,"REV_AT_EPOCH":5378,"BSTAR":0.0007072062,"MEAN_MOTION_DOT":7.941e-5,"MEAN_MOTION_DDOT":0}]
